[{"OBJECT_NAME":"STARLINK-4346","OBJECT_ID":"2022-077AG","EPOCH":"2026-03-09T23:20:05.829216","MEAN_MOTION":15.20483722,"ECCENTRICITY":0.00045407,"INCLINATION":97.6378,"RA_OF_ASC_NODE":257.0949,"ARG_OF_PERICENTER":212.0804,"MEAN_ANOMALY":148.0155,"EPHEMERIS_TYPE":0,"CLASSIFICATION_TYPE":"U","NORAD_CAT_ID":53073,"ELEMENT_SET_NO":999,"REV_AT_EPOCH":20134,"BSTAR":0.00030178555,"MEAN_MOTION_DOT":6.523e-5,"MEAN_MOTION_DDOT":0},{"OBJECT_NAME":"INNOSAT 16 (RS92S7)","OBJECT_ID":"2025-155C","EPOCH":"2026-03-09T21:55:33.190176","MEAN_MOTION":15.24188147,"ECCENTRICITY":0.00110314,"INCLINATION":97.4467,"RA_OF_ASC_NODE":36.5104,"ARG_OF_PERICENTER":164.72,"MEAN_ANOMALY":195.4373,"EPHEMERIS_TYPE":0,"CLASSIFICATION_TYPE":"U","NORAD_CAT_ID":64878,"ELEMENT_SET_NO":999,"REV_AT_EPOCH":6554,"BSTAR":0.00039576165,"MEAN_MOTION_DOT":9.587e-5,"MEAN_MOTION_DDOT":0}]
